[{"OBJECT_NAME":"STARLINK-30351","OBJECT_ID":"2023-131G","EPOCH":"2026-03-09T22:00:01.999584","MEAN_MOTION":15.13769013,"ECCENTRICITY":0.00010896,"INCLINATION":42.9997,"RA_OF_ASC_NODE":170.4064,"ARG_OF_PERICENTER":262.6295,"MEAN_ANOMALY":331.656,"EPHEMERIS_TYPE":0,"CLASSIFICATION_TYPE":"U","NORAD_CAT_ID":57738,"ELEMENT_SET_NO":999,"REV_AT_EPOCH":578,"BSTAR":0.05938113,"MEAN_MOTION_DOT":0.01189701,"MEAN_MOTION_DDOT":0},{"OBJECT_NAME":"SHIYAN-31","OBJECT_ID":"2025-227A","EPOCH":"2026-03-09T23:00:16.199712","MEAN_MOTION":15.23071011,"ECCENTRICITY":0.00102897,"INCLINATION":80.0014,"RA_OF_ASC_NODE":266.3496,"ARG_OF_PERICENTER":145.5638,"MEAN_ANOMALY":214.6259,"EPHEMERIS_TYPE":0,"CLASSIFICATION_TYPE":"U","NORAD_CAT_ID":65945,"ELEMENT_SET_NO":999,"REV_AT_EPOCH":2244,"BSTAR":0.00029737952,"MEAN_MOTION_DOT":7.034e-5,"MEAN_MOTION_DDOT":0}]
